start=new Date('2023-05-15T00:00:00.000Z').valueOf();
sats=[{"EPOCH":"2023-05-14T18:38:18.422304","PERIOD":"95.594","ARG_OF_PERICENTER":"75.3872","TIME_SYSTEM":"UTC","LAUNCH_DATE":"2020-10-24","SITE":"AFETR","REF_FRAME":"TEME","MEAN_ANOMALY":"284.7226","TLE_LINE2":"2 46789  53.0534 265.2385 0000982  75.3872 284.7226 15.06377682141448","FILE":"3908005","MEAN_ELEMENT_THEORY":"SGP4","RA_OF_ASC_NODE":"265.2385","INCLINATION":"53.0534","APOAPSIS":"547.962","MEAN_MOTION_DDOT":"0.0000000000000","CENTER_NAME":"EARTH","DECAY_DATE":null,"REV_AT_EPOCH":"14144","MEAN_MOTION_DOT":"0.00022484","SEMIMAJOR_AXIS":"6925.417","NORAD_CAT_ID":"46789","MEAN_MOTION":"15.06377682","PERIAPSIS":"546.602","TLE_LINE1":"1 46789U 20074BC  23134.77660211  .00022484  00000-0  15244-2 0  9998","OBJECT_ID":"2020-074BC","ECCENTRICITY":"0.00009820","OBJECT_TYPE":"PAYLOAD","RCS_SIZE":"LARGE","GP_ID":"231850791","CLASSIFICATION_TYPE":"U","OBJECT_NAME":"STARLINK-1930","EPHEMERIS_TYPE":"0","COUNTRY_CODE":"US","ELEMENT_SET_NO":"999","BSTAR":"0.00152440000000"},{"EPHEMERIS_TYPE":"0","COUNTRY_CODE":"US","BSTAR":"0.00117040000000","ELEMENT_SET_NO":"999","MEAN_MOTION":"15.06386794","TLE_LINE1":"1 46790U 20074BD  23134.73972808  .00017188  00000-0  11704-2 0  9996","PERIAPSIS":"546.480","MEAN_MOTION_DOT":"0.00017188","NORAD_CAT_ID":"46790","SEMIMAJOR_AXIS":"6925.389","CLASSIFICATION_TYPE":"U","GP_ID":"231849540","RCS_SIZE":"LARGE","OBJECT_NAME":"STARLINK-1931","ECCENTRICITY":"0.00011180","OBJECT_ID":"2020-074BD","OBJECT_TYPE":"PAYLOAD","MEAN_ELEMENT_THEORY":"SGP4","INCLINATION":"53.0532","RA_OF_ASC_NODE":"265.2440","REF_FRAME":"TEME","MEAN_ANOMALY":"297.8413","TLE_LINE2":"2 46790  53.0532 265.2440 0001118  62.2689 297.8413 15.06386794141439","FILE":"3908005","REV_AT_EPOCH":"14143","MEAN_MOTION_DDOT":"0.0000000000000","APOAPSIS":"548.028","DECAY_DATE":null,"CENTER_NAME":"EARTH","ARG_OF_PERICENTER":"62.2689","SITE":"AFETR","TIME_SYSTEM":"UTC","LAUNCH_DATE":"2020-10-24","EPOCH":"2023-05-14T17:45:12.506112","PERIOD":"95.593"},{"TLE_LINE1":"1 46791U 20074BE  23134.75447357  .00012572  00000-0  86180-3 0  9998","PERIAPSIS":"546.583","MEAN_MOTION":"15.06382873","NORAD_CAT_ID":"46791","SEMIMAJOR_AXIS":"6925.401","MEAN_MOTION_DOT":"0.00012572","OBJECT_NAME":"STARLINK-1933","GP_ID":"231850290","CLASSIFICATION_TYPE":"U","RCS_SIZE":"LARGE","OBJECT_TYPE":"PAYLOAD","ECCENTRICITY":"0.00009870","OBJECT_ID":"2020-074BE","COUNTRY_CODE":"US","EPHEMERIS_TYPE":"0","BSTAR":"0.00086180000000","ELEMENT_SET_NO":"999","SITE":"AFETR","LAUNCH_DATE":"2020-10-24","TIME_SYSTEM":"UTC","ARG_OF_PERICENTER":"77.6895","PERIOD":"95.593","EPOCH":"2023-05-14T18:06:26.516448","INCLINATION":"53.0529","RA_OF_ASC_NODE":"265.1769","MEAN_ELEMENT_THEORY":"SGP4","TLE_LINE2":"2 46791  53.0529 265.1769 0000987  77.6895 282.4205 15.06382873141445","FILE":"3908005","MEAN_ANOMALY":"282.4205","REF_FRAME":"TEME","REV_AT_EPOCH":"14144","DECAY_DATE":null,"CENTER_NAME":"EARTH","MEAN_MOTION_DDOT":"0.0000000000000","APOAPSIS":"547.950"},{"ARG_OF_PERICENTER":"93.7014","LAUNCH_DATE":"2020-10-24","TIME_SYSTEM":"UTC","SITE":"AFETR","EPOCH":"2023-05-14T15:33:50.617728","PERIOD":"95.593","REV_AT_EPOCH":"14156","APOAPSIS":"548.010","MEAN_MOTION_DDOT":"0.0000000000000","CENTER_NAME":"EARTH","DECAY_DATE":null,"MEAN_ELEMENT_THEORY":"SGP4","RA_OF_ASC_NODE":"255.6526","INCLINATION":"53.0531","MEAN_ANOMALY":"266.4096","REF_FRAME":"TEME","FILE":"3908005","TLE_LINE2":"2 46792  53.0531 255.6526 0001059  93.7014 266.4096 15.06379559141567","RCS_SIZE":"LARGE","GP_ID":"231850541","CLASSIFICATION_TYPE":"U","OBJECT_NAME":"STARLINK-1934","OBJECT_ID":"2020-074BF","ECCENTRICITY":"0.00010590","OBJECT_TYPE":"PAYLOAD","MEAN_MOTION":"15.06379559","PERIAPSIS":"546.543","TLE_LINE1":"1 46792U 20074BF  23134.64850252  .00022035  00000-0  14944-2 0  9992","MEAN_MOTION_DOT":"0.00022035","SEMIMAJOR_AXIS":"6925.411","NORAD_CAT_ID":"46792","BSTAR":"0.00149440000000","ELEMENT_SET_NO":"999","EPHEMERIS_TYPE":"0","COUNTRY_CODE":"US"},{"COUNTRY_CODE":"US","EPHEMERIS_TYPE":"0","BSTAR":"0.00164730000000","ELEMENT_SET_NO":"999","TLE_LINE1":"1 46793U 20074BG  23134.74340992  .00024322  00000-0  16473-2 0  9999","PERIAPSIS":"546.515","MEAN_MOTION":"15.06372651","NORAD_CAT_ID":"46793","SEMIMAJOR_AXIS":"6925.432","MEAN_MOTION_DOT":"0.00024322","OBJECT_NAME":"STARLINK-1941","GP_ID":"231851292","CLASSIFICATION_TYPE":"U","RCS_SIZE":"LARGE","OBJECT_TYPE":"PAYLOAD","ECCENTRICITY":"0.00011290","OBJECT_ID":"2020-074BG","INCLINATION":"53.0531","RA_OF_ASC_NODE":"265.2253","MEAN_ELEMENT_THEORY":"SGP4","TLE_LINE2":"2 46793  53.0531 265.2253 0001129  90.7105 269.4013 15.06372651141432","FILE":"3908005","MEAN_ANOMALY":"269.4013","REF_FRAME":"TEME","REV_AT_EPOCH":"14143","DECAY_DATE":null,"CENTER_NAME":"EARTH","MEAN_MOTION_DDOT":"0.0000000000000","APOAPSIS":"548.079","SITE":"AFETR","LAUNCH_DATE":"2020-10-24","TIME_SYSTEM":"UTC","ARG_OF_PERICENTER":"90.7105","PERIOD":"95.594","EPOCH":"2023-05-14T17:50:30.617088"},{"EPOCH":"2023-05-14T18:01:07.840416","PERIOD":"95.594","ARG_OF_PERICENTER":"79.4472","SITE":"AFETR","LAUNCH_DATE":"2020-10-24","TIME_SYSTEM":"UTC","MEAN_ANOMALY":"280.6656","REF_FRAME":"TEME","FILE":"3908005","TLE_LINE2":"2 46794  53.0534 265.1944 0001235  79.4472 280.6656 15.06377392141447","MEAN_ELEMENT_THEORY":"SGP4","INCLINATION":"53.0534","RA_OF_ASC_NODE":"265.1944","MEAN_MOTION_DDOT":"0.0000000000000","APOAPSIS":"548.138","DECAY_DATE":null,"CENTER_NAME":"EARTH","REV_AT_EPOCH":"14144","MEAN_MOTION_DOT":"0.00026777","NORAD_CAT_ID":"46794","SEMIMAJOR_AXIS":"6925.418","MEAN_MOTION":"15.06377392","TLE_LINE1":"1 46794U 20074BH  23134.75078519  .00026777  00000-0  18108-2 0  9997","PERIAPSIS":"546.428","ECCENTRICITY":"0.00012350","OBJECT_ID":"2020-074BH","OBJECT_TYPE":"PAYLOAD","GP_ID":"231850040","CLASSIFICATION_TYPE":"U","RCS_SIZE":"LARGE","OBJECT_NAME":"STARLINK-1942","EPHEMERIS_TYPE":"0","COUNTRY_CODE":"US","ELEMENT_SET_NO":"999","BSTAR":"0.00181080000000"},{"DECAY_DATE":null,"CENTER_NAME":"EARTH","MEAN_MOTION_DDOT":"0.0000000000000","APOAPSIS":"548.062","REV_AT_EPOCH":"14122","FILE":"3907668","TLE_LINE2":"2 46796  53.0535 256.1986 0001126  89.4694 270.6424 15.06377714141228","MEAN_ANOMALY":"270.6424","REF_FRAME":"TEME","INCLINATION":"53.0535","RA_OF_ASC_NODE":"256.1986","MEAN_ELEMENT_THEORY":"SGP4","PERIOD":"95.594","EPOCH":"2023-05-14T12:38:41.015904","SITE":"AFETR","TIME_SYSTEM":"UTC","LAUNCH_DATE":"2020-10-24","ARG_OF_PERICENTER":"89.4694","ELEMENT_SET_NO":"999","BSTAR":"0.00111320000000","COUNTRY_CODE":"US","EPHEMERIS_TYPE":"0","OBJECT_TYPE":"PAYLOAD","ECCENTRICITY":"0.00011260","OBJECT_ID":"2020-074BK","OBJECT_NAME":"STARLINK-1944","CLASSIFICATION_TYPE":"U","GP_ID":"231795774","RCS_SIZE":"LARGE","NORAD_CAT_ID":"46796","SEMIMAJOR_AXIS":"6925.417","MEAN_MOTION_DOT":"0.00016328","TLE_LINE1":"1 46796U 20074BK  23134.52686361  .00016328  00000-0  11132-2 0  9995","PERIAPSIS":"546.502","MEAN_MOTION":"15.06377714"},{"SITE":"AFETR","LAUNCH_DATE":"2020-10-24","TIME_SYSTEM":"UTC","ARG_OF_PERICENTER":"67.7371","PERIOD":"95.593","EPOCH":"2023-05-14T19:46:34.967712","REV_AT_EPOCH":"14124","DECAY_DATE":null,"CENTER_NAME":"EARTH","MEAN_MOTION_DDOT":"0.0000000000000","APOAPSIS":"547.986","INCLINATION":"53.0553","RA_OF_ASC_NODE":"279.8664","MEAN_ELEMENT_THEORY":"SGP4","TLE_LINE2":"2 46798  53.0553 279.8664 0001075  67.7371 292.3732 15.06391037141248","FILE":"3908005","MEAN_ANOMALY":"292.3732","REF_FRAME":"TEME","OBJECT_NAME":"STARLINK-1948","GP_ID":"231851042","CLASSIFICATION_TYPE":"U","RCS_SIZE":"LARGE","OBJECT_TYPE":"PAYLOAD","ECCENTRICITY":"0.00010750","OBJECT_ID":"2020-074BM","TLE_LINE1":"1 46798U 20074BM  23134.82401583 -.00000138  00000-0  96333-5 0  9993","PERIAPSIS":"546.497","MEAN_MOTION":"15.06391037","NORAD_CAT_ID":"46798","SEMIMAJOR_AXIS":"6925.376","MEAN_MOTION_DOT":"-0.00000138","BSTAR":"0.00000963330000","ELEMENT_SET_NO":"999","COUNTRY_CODE":"US","EPHEMERIS_TYPE":"0"},{"TLE_LINE2":"2 47122  53.0535 245.9672 0001145  62.7743 297.3363 15.06374046136575","FILE":"3907744","MEAN_ANOMALY":"297.3363","REF_FRAME":"TEME","RA_OF_ASC_NODE":"245.9672","INCLINATION":"53.0535","MEAN_ELEMENT_THEORY":"SGP4","CENTER_NAME":"EARTH","DECAY_DATE":null,"APOAPSIS":"548.086","MEAN_MOTION_DDOT":"0.0000000000000","REV_AT_EPOCH":"13657","PERIOD":"95.594","EPOCH":"2023-05-14T13:54:19.145664","LAUNCH_DATE":"2020-11-25","TIME_SYSTEM":"UTC","SITE":"AFETR","ARG_OF_PERICENTER":"62.7743","COUNTRY_CODE":"US","EPHEMERIS_TYPE":"0","ELEMENT_SET_NO":"999","BSTAR":"0.00149020000000","SEMIMAJOR_AXIS":"6925.428","NORAD_CAT_ID":"47122","MEAN_MOTION_DOT":"0.00021969","PERIAPSIS":"546.500","TLE_LINE1":"1 47122U 20088A   23134.57938826  .00021969  00000-0  14902-2 0  9990","MEAN_MOTION":"15.06374046","OBJECT_TYPE":"PAYLOAD","OBJECT_ID":"2020-088A","ECCENTRICITY":"0.00011450","OBJECT_NAME":"STARLINK-1777","RCS_SIZE":"LARGE","GP_ID":"231817963","CLASSIFICATION_TYPE":"U"},{"EPHEMERIS_TYPE":"0","COUNTRY_CODE":"US","ELEMENT_SET_NO":"999","BSTAR":"0.00180440000000","MEAN_MOTION_DOT":"0.00026676","NORAD_CAT_ID":"47124","SEMIMAJOR_AXIS":"6925.438","MEAN_MOTION":"15.06370946","TLE_LINE1":"1 47124U 20088C   23134.63237605  .00026676  00000-0  18044-2 0  9997","PERIAPSIS":"546.505","ECCENTRICITY":"0.00011520","OBJECT_ID":"2020-088C","OBJECT_TYPE":"PAYLOAD","GP_ID":"231850822","CLASSIFICATION_TYPE":"U","RCS_SIZE":"LARGE","OBJECT_NAME":"STARLINK-1785","MEAN_ANOMALY":"261.4181","REF_FRAME":"TEME","FILE":"3908005","TLE_LINE2":"2 47124  53.0542 250.7367 0001152  98.6938 261.4181 15.06370946136511","MEAN_ELEMENT_THEORY":"SGP4","INCLINATION":"53.0542","RA_OF_ASC_NODE":"250.7367","MEAN_MOTION_DDOT":"0.0000000000000","APOAPSIS":"548.100","DECAY_DATE":null,"CENTER_NAME":"EARTH","REV_AT_EPOCH":"13651","EPOCH":"2023-05-14T15:10:37.290720","PERIOD":"95.594","ARG_OF_PERICENTER":"98.6938","SITE":"AFETR","LAUNCH_DATE":"2020-11-25","TIME_SYSTEM":"UTC"}];
